STARLINK-5750           
1 55594C 23020AB  26118.64840278 -.00040894  00000+0 -14813-2 0  1180
2 55594  43.0033  82.8021 0001797 262.6034 194.4267 15.27594847    17
STARLINK-5729           
1 55596C 23020AD  26118.78590278  .00030642  00000+0  11094-2 0  1185
2 55596  43.0022  82.1572 0001487 256.0737 181.3220 15.27576155    10
STARLINK-5743           
1 55597C 23020AE  26118.74979167  .00027433  00000+0  10195-2 0  1185
2 55597  43.0023  71.1064 0001188 256.4628 340.8670 15.26721497    18
STARLINK-5756           
1 55598C 23020AF  26118.74423611  .00017157  00000+0  62150-3 0  1185
2 55598  43.0018  71.6735 0001330 251.7330  75.7154 15.27566080    17
STARLINK-5761           
1 55599C 23020AG  26118.74840278  .00032307  00000+0  11703-2 0  1189
2 55599  43.0009  71.7048 0001188 260.6924  68.4734 15.27558090    10
STARLINK-5755           
1 55600C 23020AH  26118.75673611  .00025705  00000+0  93112-3 0  1187
2 55600  43.0034  71.3580 0001546 262.2443 247.2245 15.27562318    12
STARLINK-5744           
1 55601C 23020AJ  26118.69006944 -.00011290  00000+0 -41952-3 0  1181
2 55601  43.0018  83.1824 0001244 258.0038 166.1180 15.26742761    13
STARLINK-5764           
1 55602C 23020AK  26118.71229167  .00014687  00000+0  54582-3 0  1183
2 55602  43.0017  71.8714 0001586 263.2994 243.0287 15.26726598    16
STARLINK-5735           
1 55603C 23020AL  26118.79076389  .00038411  00000+0  13914-2 0  1182
2 55603  43.0031  71.1225 0001692 262.8283  95.2063 15.27555832    18
STARLINK-5748           
1 55604C 23020AM  26118.71229167  .00029771  00000+0  10785-2 0  1181
2 55604  43.0010  56.9004 0001250 255.0077   6.9726 15.27557713    12
STARLINK-5725           
1 55605C 23020AN  26118.73590278  .00030948  00000+0  11207-2 0  1186
2 55605  43.0030  71.5269 0001566 259.1302 114.2879 15.27570959    16
STARLINK-5700           
1 55607C 23020AQ  26118.72895833  .00026415  00000+0  98155-3 0  1184
2 55607  43.0030  71.6128 0001747 261.1162  55.1971 15.26724429    19
STARLINK-5726           
1 55608C 23020AR  26118.76576389  .00031875  00000+0  11547-2 0  1186
2 55608  43.0017  71.5849 0001557 260.0477 178.8405 15.27556992    14
STARLINK-5719           
1 55609C 23020AS  26118.73590278  .00025838  00000+0  96022-3 0  1181
2 55609  43.0023  71.6245 0001695 259.8217  72.9413 15.26720534    11
STARLINK-5722           
1 55610C 23020AT  26118.75118056  .00032771  00000+0  11872-2 0  1188
2 55610  43.0015  71.7635 0001192 258.2222  57.9287 15.27555494    13
STARLINK-5730           
1 55611C 23020AU  26118.73451389  .00021954  00000+0  81575-3 0  1185
2 55611  43.0000  71.8949 0001083 262.8395 306.8064 15.26728105    17
STARLINK-5734           
1 55612C 23020AV  26118.77201389  .00028434  00000+0  10566-2 0  1184
2 55612  43.0010  71.5930 0001174 251.8331 204.8172 15.26722384    15
STARLINK-5714           
1 55614C 23020AX  26118.78590278  .00034524  00000+0  12826-2 0  1183
2 55614  43.0023  56.4224 0001141 259.6835  54.3960 15.26726709    16
STARLINK-5712           
1 55615C 23020AY  26118.72895833  .00017369  00000+0  64544-3 0  1186
2 55615  43.0021  71.1624 0001385 256.4837 245.7415 15.26726879    19
STARLINK-5710           
1 55616C 23020AZ  26118.74909722  .00024337  00000+0  90454-3 0  1184
2 55616  43.0045  71.2744 0001317 261.3545 260.1697 15.26717600    11
STARLINK-5721           
1 55617C 23020BA  26118.79006944  .00031813  00000+0  11836-2 0  1187
2 55617  43.0021  70.8668 0001151 259.7298 196.7458 15.26681887    14
STARLINK-5717           
1 55618C 23020BB  26118.72618056  .00028571  00000+0  10622-2 0  1183
2 55618  43.0043  71.4844 0001396 279.1764  82.3244 15.26707134    14
STARLINK-5720           
1 55619C 23020BC  26118.74215278  .00030987  00000+0  11217-2 0  1180
2 55619  43.0030  71.4676 0001566 263.7708 151.1717 15.27582489    15
STARLINK-5718           
1 55620C 23020BD  26118.66715278 -.00017339  00000+0 -64434-3 0  1186
2 55620  43.0044  71.8268 0001483 274.7742 116.7102 15.26744654    19
STARLINK-5709           
1 55621C 23020BE  26118.71993056  .00011861  00000+0  44081-3 0  1183
2 55621  43.0034  71.3871 0001243 260.6067 120.5119 15.26727023    14
STARLINK-5702           
1 55622C 23020BF  26118.73312500  .00027670  00000+0  10289-2 0  1182
2 55622  43.0044  71.5097 0001728 263.3420 107.9168 15.26700961    14
STARLINK-5698           
1 55623C 23020BG  26118.79076389  .00033252  00000+0  12357-2 0  1182
2 55623  43.0020  71.3203 0001528 258.3737  10.9987 15.26719766    14
STARLINK-5484           
1 55628C 23021A   26118.65951389  .00025090  00000+0  21030-2 0  1184
2 55628  70.0006  78.5504 0003628 264.4390   4.0488 14.98310881    15
STARLINK-5497           
1 55629C 23021B   26118.68312500  .00044851  00000+0  37603-2 0  1183
2 55629  70.0005  78.5168 0002888 267.0201 106.2546 14.98291940    12
STARLINK-5303           
1 55630C 23021C   26118.74215278  .00071664  00000+0  60062-2 0  1183
2 55630  70.0004  78.3160 0003152 265.7840 110.8327 14.98290772    12
STARLINK-5558           
1 55631C 23021D   26118.79840278  .00059848  00000+0  50154-2 0  1184
2 55631  70.0003  78.0204 0003076 267.0343 187.9665 14.98301404    11
STARLINK-5546           
1 55632C 23021E   26118.67062500  .00034558  00000+0  28969-2 0  1186
2 55632  70.0005  78.4443 0002921 269.2821 126.6537 14.98302522    16
STARLINK-5498           
1 55633C 23021F   26118.77826389  .00065145  00000+0  54604-2 0  1182
2 55633  70.0006  78.1492 0003968 251.7319  27.1545 14.98287962    13
STARLINK-5500           
1 55634C 23021G   26118.77756944  .00062961  00000+0  52763-2 0  1189
2 55634  70.0004  78.1767 0002910 268.3547 343.3817 14.98300271    14
STARLINK-5495           
1 55635C 23021H   26118.77270833  .00049286  00000+0  41278-2 0  1182
2 55635  70.0019  58.1939 0003232 268.3534  71.7265 14.98328961    19
STARLINK-5218           
1 55636C 23021J   26118.77340278  .00068886  00000+0  57725-2 0  1185
2 55636  70.0002  78.1093 0002988 267.0252  30.6457 14.98298792    10
STARLINK-5062           
1 55637C 23021K   26118.76090278  .00048883  00000+0  40928-2 0  1189
2 55637  70.0018  58.3200 0002923 267.0970 279.3932 14.98342428    10
STARLINK-5507           
1 55638C 23021L   26118.73590278  .00067827  00000+0  56847-2 0  1188
2 55638  70.0004  78.2299 0003249 267.2013 165.7548 14.98292696    19
STARLINK-5508           
1 55639C 23021M   26118.75326389 -.00028224  00000+0 -23655-2 0  1182
2 55639  70.0018  58.2151 0003076 263.1760 353.8340 14.98341084    18
STARLINK-5069           
1 55640C 23021N   26118.71437500  .00072911  00000+0  61101-2 0  1186
2 55640  70.0016  58.2848 0002988 266.4059 164.2057 14.98295245    15
STARLINK-5065           
1 55641C 23021P   26118.65812500  .00065081  00000+0  54586-2 0  1186
2 55641  70.0019  58.6023 0002944 266.0790  63.6426 14.98265872    13
STARLINK-5483           
1 55643C 23021R   26118.78034722  .00039199  00000+0  32849-2 0  1183
2 55643  70.0019  58.3410 0003120 267.5257 316.2554 14.98312635    12
STARLINK-5502           
1 55644C 23021S   26118.72826389  .00070961  00000+0  59467-2 0  1183
2 55644  70.0019  58.3531 0003111 266.9322 148.5372 14.98296010    15
STARLINK-5510           
1 55647C 23021V   26118.66298611  .00064442  00000+0  54017-2 0  1183
2 55647  70.0014  58.3135 0003017 267.2083 336.3380 14.98289719    10
STARLINK-5501           
1 55648C 23021W   26118.74354167  .00057877  00000+0  48500-2 0  1186
2 55648  70.0020  58.2898 0002954 266.5573 253.8005 14.98304322    13
STARLINK-5469           
1 55649C 23021X   26118.73243056  .00059358  00000+0  49747-2 0  1180
2 55649  70.0017  58.1905 0002976 266.0621 306.9254 14.98298628    18
STARLINK-5494           
1 55650C 23021Y   26118.78381944  .00044194  00000+0  37032-2 0  1182
2 55650  70.0018  58.1363 0002692 264.6718 157.8915 14.98313755    11
STARLINK-5506           
1 55651C 23021Z   26118.74076389  .00062817  00000+0  52615-2 0  1189
2 55651  70.0018  58.3456 0003024 267.1614 193.1748 14.98319382    19
STARLINK-5487           
1 55652C 23021AA  26118.76159722  .00055008  00000+0  46101-2 0  1182
2 55652  70.0016  58.1418 0003096 265.5722  82.1884 14.98300902    11
STARLINK-5067           
1 55653C 23021AB  26118.74006944  .00062324  00000+0  52234-2 0  1181
2 55653  70.0016  58.0947 0002883 266.1624  55.5550 14.98296918    14
STARLINK-5070           
1 55654C 23021AC  26118.70604167  .00066534  00000+0  55764-2 0  1187
2 55654  70.0014  58.5086 0003022 268.1302 297.4806 14.98292936    10
STARLINK-5267           
1 55655C 23021AD  26118.73868056  .00034363  00000+0  28795-2 0  1189
2 55655  70.0029  38.3751 0003322 264.9653 275.4009 14.98316919    17
STARLINK-5328           
1 55657C 23021AF  26118.75256944  .00026527  00000+0  22227-2 0  1187
2 55657  70.0031  38.3909 0003047 265.7756 304.4673 14.98322742    15
STARLINK-5307           
1 55658C 23021AG  26118.74562500  .00059041  00000+0  49475-2 0  1186
2 55658  70.0015  58.1313 0003547 264.6529  41.9993 14.98302492    16
STARLINK-5477           
1 55659C 23021AH  26118.74145833  .00033198  00000+0  27815-2 0  1182
2 55659  70.0029  38.3942 0002848 266.2661 266.5629 14.98323571    10
STARLINK-5467           
1 55660C 23021AJ  26118.77687500  .00010910  00000+0  91403-3 0  1181
2 55660  70.0033  38.0117 0002937 269.9589   3.9398 14.98335973    11
STARLINK-5475           
1 55661C 23021AK  26118.79631944  .00000545  00000+0  45635-4 0  1185
2 55661  70.0028  38.1540 0002798 265.2532 293.4460 14.98334578    15
STARLINK-5479           
1 55662C 23021AL  26118.71437500  .00045276  00000+0  38742-2 0  1189
2 55662  70.0029  38.3198 0002802 267.6857 259.4929 14.97501152    15
STARLINK-5473           
1 55663C 23021AM  26118.78034722  .00009371  00000+0  78517-3 0  1187
2 55663  70.0030  38.1440 0002891 267.2574 250.3342 14.98332062    18
